ONEWEB-0207             
1 48242U 21031AJ  25293.63552732  .00000029  00000+0  44611-4 0  9991
2 48242  87.9028 337.4071 0001842  90.1803 269.9538 13.14502863216821
ONEWEB-0208             
1 48243U 21031AK  25293.38893213 -.00000125  00000+0 -37153-3 0  9997
2 48243  87.9032 337.4720 0002074  97.8244 262.3121 13.14504556216803
ONEWEB-0200             
1 48244U 21031AL  25293.58082350  .00000245  00000+0  62762-3 0  9997
2 48244  87.9032 337.4239 0001999  96.6851 263.4507 13.14502005216756
ONEWEB-0217             
1 48245U 21031AM  25293.59667764 -.00000017  00000+0 -79378-4 0  9998
2 48245  87.9044 337.4105 0002171  99.4632 260.6743 13.14502978216708
ONEWEB-0211             
1 48767U 21045A   25293.56942157  .00000102  00000+0  23389-3 0  9994
2 48767  87.8977 306.9463 0001983 102.8016 257.3336 13.16086447212925
ONEWEB-0223             
1 48768U 21045B   25293.61268847 -.00000059  00000+0 -19157-3 0  9999
2 48768  87.8966 306.9946 0001977 106.9046 253.2302 13.15549071212903
ONEWEB-0230             
1 48769U 21045C   25293.58416834  .00000111  00000+0  26039-3 0  9991
2 48769  87.8965 307.0323 0001686  91.4597 268.6726 13.15548171213169
ONEWEB-0237             
1 48770U 21045D   25293.57307987  .00000061  00000+0  12725-3 0  9991
2 48770  87.8969 307.0325 0001802 101.8967 258.2366 13.15548289212887
